[{"OBJECT_NAME":"STARLINK-32374","OBJECT_ID":"2024-224G","EPOCH":"2026-03-09T06:18:43.497216","MEAN_MOTION":15.27589886,"ECCENTRICITY":0.00020188,"INCLINATION":43,"RA_OF_ASC_NODE":160.6086,"ARG_OF_PERICENTER":256.0897,"MEAN_ANOMALY":103.973,"EPHEMERIS_TYPE":0,"CLASSIFICATION_TYPE":"U","NORAD_CAT_ID":62145,"ELEMENT_SET_NO":999,"REV_AT_EPOCH":7241,"BSTAR":0.001285355,"MEAN_MOTION_DOT":0.00035289,"MEAN_MOTION_DDOT":0},{"OBJECT_NAME":"CZ-6A DEB","OBJECT_ID":"2022-151ME","EPOCH":"2026-03-09T17:07:50.636064","MEAN_MOTION":15.20556855,"ECCENTRICITY":0.00283971,"INCLINATION":98.6182,"RA_OF_ASC_NODE":149.2426,"ARG_OF_PERICENTER":178.5587,"MEAN_ANOMALY":181.5732,"EPHEMERIS_TYPE":0,"CLASSIFICATION_TYPE":"U","NORAD_CAT_ID":54578,"ELEMENT_SET_NO":999,"REV_AT_EPOCH":10518,"BSTAR":0.0077423675,"MEAN_MOTION_DOT":0.00175116,"MEAN_MOTION_DDOT":0}]
